{
  "type": "FeatureCollection",
  "features": [
    {
      "type": "Feature",
      "properties": {
        "color": "#800",
        "label": 0.0167
      },
      "geometry": {
        "coordinates": [
          [
            [
              116.35020488838711,
              39.922209573864905
            ],
            [
              116.3510144892033,
              39.89860404414284
            ],
            [
              116.35957158252933,
              39.89829552732125
            ],
            [
              116.36792893383455,
              39.89849052540396
            ],
            [
              116.36711989790467,
              39.9225218553552
            ],
            [
              116.35020488838711,
              39.922209573864905
            ]
          ]
        ],
        "type": "Polygon"
      },
      "id": 1443
    }
  ]
}